ONEWEB-0317             
1 49103U 21075AE  24115.10477853 -.00000279  00000+0 -80961-3 0  9996
2 49103  87.8946 146.7684 0002142 100.4291 259.7079 13.12441183133333
ONEWEB-0318             
1 49104U 21075AF  24115.04857811 -.00000086  00000+0 -25193-3 0  9998
2 49104  87.9126 131.5510 0002083  81.1752 278.9616 13.18686827134823
ONEWEB-0319             
1 49105U 21075AG  24115.13255750  .00000131  00000+0  30542-3 0  9996
2 49105  87.9201 161.9174 0002404  85.2295 274.9111 13.17651569131349
ONEWEB-0323             
1 49106U 21075AH  24114.63783178 -.00000040  00000+0 -14611-3 0  9991
2 49106  87.8949 146.8481 0002150  85.9797 274.1577 13.12443188131645
ONEWEB-0329             
1 49107U 21075AJ  24115.14046215  .00000115  00000+0  26353-3 0  9990
2 49107  87.9202 161.9192 0002275  93.5835 266.5557 13.17647420131320
ONEWEB-0330             
1 49108U 21075AK  24114.68642702  .00000079  00000+0  17126-3 0  9999
2 49108  87.9203 162.0089 0002371  94.7172 265.4230 13.17647340130318
ONEWEB-0292             
1 49186U 21083A   24115.06831628  .00000395  00000+0  10468-2 0  9996
2 49186  87.8893 116.3444 0001951  85.7104 274.4248 13.13469261129286
ONEWEB-0303             
1 49187U 21083B   24115.12127905 -.00000074  00000+0 -22065-3 0  9993
2 49187  87.9129 131.5351 0002013  83.6401 276.4960 13.18689586127924
